[{"OBJECT_NAME":"STARLINK-34346","OBJECT_ID":"2025-112K","EPOCH":"2026-03-09T16:55:02.508096","MEAN_MOTION":15.05649406,"ECCENTRICITY":5.459e-5,"INCLINATION":97.6024,"RA_OF_ASC_NODE":121.585,"ARG_OF_PERICENTER":141.1531,"MEAN_ANOMALY":218.9735,"EPHEMERIS_TYPE":0,"CLASSIFICATION_TYPE":"U","NORAD_CAT_ID":64155,"ELEMENT_SET_NO":999,"REV_AT_EPOCH":4331,"BSTAR":8.4765874e-5,"MEAN_MOTION_DOT":1.163e-5,"MEAN_MOTION_DDOT":0},{"OBJECT_NAME":"SL-8 DEB","OBJECT_ID":"1976-098E","EPOCH":"2026-03-09T08:07:12.416160","MEAN_MOTION":15.06605169,"ECCENTRICITY":0.00102283,"INCLINATION":74.028,"RA_OF_ASC_NODE":26.283,"ARG_OF_PERICENTER":218.296,"MEAN_ANOMALY":294.2383,"EPHEMERIS_TYPE":0,"CLASSIFICATION_TYPE":"U","NORAD_CAT_ID":18504,"ELEMENT_SET_NO":999,"REV_AT_EPOCH":18055,"BSTAR":0.0011587434,"MEAN_MOTION_DOT":0.00017191,"MEAN_MOTION_DDOT":0}]
